CCSDS_OMM_VERS = 2.0
CREATION_DATE  = 
ORIGINATOR     = 

OBJECT_NAME    = ORBVIEW 2 (SEASTAR)
OBJECT_ID      = 1997-037A
CENTER_NAME    = EARTH
REF_FRAME      = TEME
TIME_SYSTEM    = UTC
MEAN_ELEMENT_THEORY = SGP/SGP4

EPOCH          = 2025-11-29T07:44:32.032608
MEAN_MOTION    = 14.35400705
ECCENTRICITY   = .00023336
INCLINATION    = 98.8451
RA_OF_ASC_NODE = 130.0598
ARG_OF_PERICENTER = 21.4441
MEAN_ANOMALY   = 338.6841

EPHEMERIS_TYPE = 0
CLASSIFICATION_TYPE = U
NORAD_CAT_ID   = 24883
ELEMENT_SET_NO = 999
REV_AT_EPOCH   = 49407
BSTAR          = .1259205E-3
MEAN_MOTION_DOT = .315E-5
MEAN_MOTION_DDOT = 0

CCSDS_OMM_VERS = 2.0
CREATION_DATE  = 
ORIGINATOR     = 

OBJECT_NAME    = SL-16 R/B
OBJECT_ID      = 1998-043G
CENTER_NAME    = EARTH
REF_FRAME      = TEME
TIME_SYSTEM    = UTC
MEAN_ELEMENT_THEORY = SGP/SGP4

EPOCH          = 2025-11-29T02:47:25.238976
MEAN_MOTION    = 14.26020329
ECCENTRICITY   = .0009015
INCLINATION    = 98.8105
RA_OF_ASC_NODE = 280.8596
ARG_OF_PERICENTER = 310.7134
MEAN_ANOMALY   = 49.3261

EPHEMERIS_TYPE = 0
CLASSIFICATION_TYPE = U
NORAD_CAT_ID   = 25400
ELEMENT_SET_NO = 999
REV_AT_EPOCH   = 42465
BSTAR          = .59148227E-4
MEAN_MOTION_DOT = .96E-6
MEAN_MOTION_DDOT = 0

CCSDS_OMM_VERS = 2.0
CREATION_DATE  = 
ORIGINATOR     = 

OBJECT_NAME    = SL-16 R/B
OBJECT_ID      = 1998-045B
CENTER_NAME    = EARTH
REF_FRAME      = TEME
TIME_SYSTEM    = UTC
MEAN_ELEMENT_THEORY = SGP/SGP4

EPOCH          = 2025-11-29T06:34:02.476992
MEAN_MOTION    = 14.16173051
ECCENTRICITY   = .00077385
INCLINATION    = 71.0127
RA_OF_ASC_NODE = 32.7459
ARG_OF_PERICENTER = 196.3297
MEAN_ANOMALY   = 163.7579

EPHEMERIS_TYPE = 0
CLASSIFICATION_TYPE = U
NORAD_CAT_ID   = 25407
ELEMENT_SET_NO = 999
REV_AT_EPOCH   = 41288
BSTAR          = .15982579E-3
MEAN_MOTION_DOT = .269E-5
MEAN_MOTION_DDOT = 0

CCSDS_OMM_VERS = 2.0
CREATION_DATE  = 
ORIGINATOR     = 

OBJECT_NAME    = ISS (ZARYA)
OBJECT_ID      = 1998-067A
CENTER_NAME    = EARTH
REF_FRAME      = TEME
TIME_SYSTEM    = UTC
MEAN_ELEMENT_THEORY = SGP/SGP4

EPOCH          = 2025-11-29T02:59:56.376384
MEAN_MOTION    = 15.49180644
ECCENTRICITY   = .00037368
INCLINATION    = 51.6312
RA_OF_ASC_NODE = 209.8765
ARG_OF_PERICENTER = 181.3383
MEAN_ANOMALY   = 178.7596

EPHEMERIS_TYPE = 0
CLASSIFICATION_TYPE = U
NORAD_CAT_ID   = 25544
ELEMENT_SET_NO = 999
REV_AT_EPOCH   = 54074
BSTAR          = .1679519E-3
MEAN_MOTION_DOT = .8872E-4
MEAN_MOTION_DDOT = 0

CCSDS_OMM_VERS = 2.0
CREATION_DATE  = 
ORIGINATOR     = 

OBJECT_NAME    = CZ-4B R/B
OBJECT_ID      = 1999-025C
CENTER_NAME    = EARTH
REF_FRAME      = TEME
TIME_SYSTEM    = UTC
MEAN_ELEMENT_THEORY = SGP/SGP4

EPOCH          = 2025-11-29T03:00:19.058112
MEAN_MOTION    = 14.18238401
ECCENTRICITY   = .00360357
INCLINATION    = 98.6790
RA_OF_ASC_NODE = 14.7086
ARG_OF_PERICENTER = 274.2048
MEAN_ANOMALY   = 106.6412

EPHEMERIS_TYPE = 0
CLASSIFICATION_TYPE = U
NORAD_CAT_ID   = 25732
ELEMENT_SET_NO = 999
REV_AT_EPOCH   = 37391
BSTAR          = .60728722E-4
MEAN_MOTION_DOT = .82E-6
MEAN_MOTION_DDOT = 0

CCSDS_OMM_VERS = 2.0
CREATION_DATE  = 
ORIGINATOR     = 

OBJECT_NAME    = OKEAN-O
OBJECT_ID      = 1999-039A
CENTER_NAME    = EARTH
REF_FRAME      = TEME
TIME_SYSTEM    = UTC
MEAN_ELEMENT_THEORY = SGP/SGP4

EPOCH          = 2025-11-29T03:12:52.320960
MEAN_MOTION    = 14.80124706
ECCENTRICITY   = .00009589
INCLINATION    = 97.9622
RA_OF_ASC_NODE = 28.9523
ARG_OF_PERICENTER = 73.5542
MEAN_ANOMALY   = 286.5775

EPHEMERIS_TYPE = 0
CLASSIFICATION_TYPE = U
NORAD_CAT_ID   = 25860
ELEMENT_SET_NO = 999
REV_AT_EPOCH   = 41951
BSTAR          = .11896722E-3
MEAN_MOTION_DOT = .85E-5
MEAN_MOTION_DDOT = 0

CCSDS_OMM_VERS = 2.0
CREATION_DATE  = 
ORIGINATOR     = 

OBJECT_NAME    = SL-16 R/B
OBJECT_ID      = 1999-039B
CENTER_NAME    = EARTH
REF_FRAME      = TEME
TIME_SYSTEM    = UTC
MEAN_ELEMENT_THEORY = SGP/SGP4

EPOCH          = 2025-11-29T03:24:38.713536
MEAN_MOTION    = 14.81555336
ECCENTRICITY   = .00139639
INCLINATION    = 98.0146
RA_OF_ASC_NODE = 27.2914
ARG_OF_PERICENTER = 219.7640
MEAN_ANOMALY   = 140.2550

EPHEMERIS_TYPE = 0
CLASSIFICATION_TYPE = U
NORAD_CAT_ID   = 25861
ELEMENT_SET_NO = 999
REV_AT_EPOCH   = 42197
BSTAR          = .98671471E-4
MEAN_MOTION_DOT = .721E-5
MEAN_MOTION_DDOT = 0

CCSDS_OMM_VERS = 2.0
CREATION_DATE  = 
ORIGINATOR     = 

OBJECT_NAME    = DELTA 2 R/B
OBJECT_ID      = 1999-041E
CENTER_NAME    = EARTH
REF_FRAME      = TEME
TIME_SYSTEM    = UTC
MEAN_ELEMENT_THEORY = SGP/SGP4

EPOCH          = 2025-11-29T07:55:07.205664
MEAN_MOTION    = 14.11345486
ECCENTRICITY   = .05048821
INCLINATION    = 51.7621
RA_OF_ASC_NODE = 341.9746
ARG_OF_PERICENTER = 52.2492
MEAN_ANOMALY   = 312.3086

EPHEMERIS_TYPE = 0
CLASSIFICATION_TYPE = U
NORAD_CAT_ID   = 25876
ELEMENT_SET_NO = 999
REV_AT_EPOCH   = 34885
BSTAR          = .19474054E-3
MEAN_MOTION_DOT = .961E-5
MEAN_MOTION_DDOT = 0

CCSDS_OMM_VERS = 2.0
CREATION_DATE  = 
ORIGINATOR     = 

OBJECT_NAME    = HELIOS 1B
OBJECT_ID      = 1999-064A
CENTER_NAME    = EARTH
REF_FRAME      = TEME
TIME_SYSTEM    = UTC
MEAN_ELEMENT_THEORY = SGP/SGP4

EPOCH          = 2025-11-29T06:43:35.290848
MEAN_MOTION    = 14.87194098
ECCENTRICITY   = .00022994
INCLINATION    = 98.1750
RA_OF_ASC_NODE = 227.5474
ARG_OF_PERICENTER = 60.3140
MEAN_ANOMALY   = 299.8304

EPHEMERIS_TYPE = 0
CLASSIFICATION_TYPE = U
NORAD_CAT_ID   = 25977
ELEMENT_SET_NO = 999
REV_AT_EPOCH   = 67033
BSTAR          = .22162355E-3
MEAN_MOTION_DOT = .1936E-4
MEAN_MOTION_DDOT = 0

CCSDS_OMM_VERS = 2.0
CREATION_DATE  = 
ORIGINATOR     = 

OBJECT_NAME    = TERRA
OBJECT_ID      = 1999-068A
CENTER_NAME    = EARTH
REF_FRAME      = TEME
TIME_SYSTEM    = UTC
MEAN_ELEMENT_THEORY = SGP/SGP4

EPOCH          = 2025-11-29T05:50:53.119968
MEAN_MOTION    = 14.60927853
ECCENTRICITY   = .0003277
INCLINATION    = 97.9768
RA_OF_ASC_NODE = 25.4219
ARG_OF_PERICENTER = 125.2535
MEAN_ANOMALY   = 307.4338

EPHEMERIS_TYPE = 0
CLASSIFICATION_TYPE = U
NORAD_CAT_ID   = 25994
ELEMENT_SET_NO = 999
REV_AT_EPOCH   = 38041
BSTAR          = .11487381E-3
MEAN_MOTION_DOT = .518E-5
MEAN_MOTION_DDOT = 0

CCSDS_OMM_VERS = 2.0
CREATION_DATE  = 
ORIGINATOR     = 

OBJECT_NAME    = SL-16 R/B
OBJECT_ID      = 2000-006B
CENTER_NAME    = EARTH
REF_FRAME      = TEME
TIME_SYSTEM    = UTC
MEAN_ELEMENT_THEORY = SGP/SGP4

EPOCH          = 2025-11-29T06:18:44.754336
MEAN_MOTION    = 14.15804339
ECCENTRICITY   = .0017675
INCLINATION    = 71.0023
RA_OF_ASC_NODE = 308.9941
ARG_OF_PERICENTER = 327.5494
MEAN_ANOMALY   = 32.4541

EPHEMERIS_TYPE = 0
CLASSIFICATION_TYPE = U
NORAD_CAT_ID   = 26070
ELEMENT_SET_NO = 999
REV_AT_EPOCH   = 33434
BSTAR          = .19514005E-3
MEAN_MOTION_DOT = .336E-5
MEAN_MOTION_DDOT = 0

CCSDS_OMM_VERS = 2.0
CREATION_DATE  = 
ORIGINATOR     = 

OBJECT_NAME    = TITAN 4B R/B
OBJECT_ID      = 2000-047B
CENTER_NAME    = EARTH
REF_FRAME      = TEME
TIME_SYSTEM    = UTC
MEAN_ELEMENT_THEORY = SGP/SGP4

EPOCH          = 2025-11-29T06:50:20.387616
MEAN_MOTION    = 15.08627846
ECCENTRICITY   = .00399391
INCLINATION    = 67.9900
RA_OF_ASC_NODE = 322.6396
ARG_OF_PERICENTER = 160.4100
MEAN_ANOMALY   = 199.8595

EPHEMERIS_TYPE = 0
CLASSIFICATION_TYPE = U
NORAD_CAT_ID   = 26474
ELEMENT_SET_NO = 999
REV_AT_EPOCH   = 37776
BSTAR          = .23994736E-3
MEAN_MOTION_DOT = .3698E-4
MEAN_MOTION_DDOT = 0

