ORBVIEW 2 (SEASTAR)     
1 24883U 97037A   25333.32259297  .00000315  00000+0  12592-3 0  9996
2 24883  98.8451 130.0598 0002333  21.4441 338.6841 14.35400705494071
SL-16 R/B               
1 25400U 98043G   25333.11626434  .00000096  00000+0  59148-4 0  9993
2 25400  98.8105 280.8596 0009015 310.7134  49.3261 14.26020329424651
SL-16 R/B               
1 25407U 98045B   25333.27363978  .00000269  00000+0  15983-3 0  9990
2 25407  71.0127  32.7459 0007738 196.3297 163.7579 14.16173051412880
ISS (ZARYA)             
1 25544U 98067A   25333.12495806  .00008872  00000+0  16795-3 0  9996
2 25544  51.6312 209.8765 0003736 181.3383 178.7596 15.49180644540748
CZ-4B R/B               
1 25732U 99025C   25333.12522058  .00000082  00000+0  60729-4 0  9992
2 25732  98.6790  14.7086 0036035 274.2048 106.6412 14.18238401373915
OKEAN-O                 
1 25860U 99039A   25333.13393890  .00000850  00000+0  11897-3 0  9994
2 25860  97.9622  28.9523 0000958  73.5542 286.5775 14.80124706419518
SL-16 R/B               
1 25861U 99039B   25333.14211474  .00000721  00000+0  98671-4 0  9996
2 25861  98.0146  27.2914 0013963 219.7640 140.2550 14.81555336421979
DELTA 2 R/B             
1 25876U 99041E   25333.32994451  .00000961  00000+0  19474-3 0  9997
2 25876  51.7621 341.9746 0504882  52.2492 312.3086 14.11345486348855
HELIOS 1B               
1 25977U 99064A   25333.28026957  .00001936  00000+0  22162-3 0  9997
2 25977  98.1750 227.5474 0002299  60.3140 299.8304 14.87194098670334
TERRA                   
1 25994U 99068A   25333.24367037  .00000518  00000+0  11487-3 0  9996
2 25994  97.9768  25.4219 0003277 125.2535 307.4338 14.60927853380411
SL-16 R/B               
1 26070U 00006B   25333.26301799  .00000336  00000+0  19514-3 0  9998
2 26070  71.0023 308.9941 0017675 327.5494  32.4541 14.15804339334348
TITAN 4B R/B            
1 26474U 00047B   25333.28495819  .00003698  00000+0  23995-3 0  9992
2 26474  67.9900 322.6396 0039939 160.4100 199.8595 15.08627846377765
